{
  "type": "FeatureCollection",
  "features": [
    {
      "type": "Feature",
      "properties": {
        "norad_id": 33844,
        "name": "COSMOS 2251 DEB",
        "group": "cosmos-2251-debris",
        "lat": 9.646236856954525,
        "lon": 50.550094119035336,
        "alt_km": 762.9772998144454,
        "timestamp": "2025-12-15T11:38:37.544929+00:00",
        "meta_object_name": "COSMOS 2251 DEB",
        "meta_object_id": "1993-036CM",
        "meta_epoch": "2025-12-14T21:04:08.078592",
        "meta_mean_motion": 14.3372026,
        "meta_eccentricity": 0.00470439,
        "meta_inclination": 74.067,
        "meta_ra_of_asc_node": 48.8753,
        "meta_arg_of_pericenter": 70.107,
        "meta_mean_anomaly": 47.3207,
        "meta_ephemeris_type": 0,
        "meta_classification_type": "U",
        "meta_norad_cat_id": 33844,
        "meta_element_set_no": 999,
        "meta_rev_at_epoch": 87756,
        "meta_bstar": 0.00037596564,
        "meta_mean_motion_dot": 1.031e-05,
        "meta_mean_motion_ddot": 0,
        "tle_line1": "1 33844U 93036CM  25348.87787128  .00001031  00000+0  37597-3 0  9991",
        "tle_line2": "2 33844  74.0670  48.8753 0047043  70.1070  47.3207 14.33720260877560"
      },
      "geometry": {
        "type": "Point",
        "coordinates": [
          50.550094119035336,
          9.646236856954525
        ]
      }
    },
    {
      "type": "Feature",
      "properties": {
        "norad_id": 33848,
        "name": "COSMOS 2251 DEB",
        "group": "cosmos-2251-debris",
        "lat": -63.33266453588309,
        "lon": -42.221748620839854,
        "alt_km": 764.6060388873966,
        "timestamp": "2025-12-15T11:38:37.544939+00:00",
        "meta_object_name": "COSMOS 2251 DEB",
        "meta_object_id": "1993-036CR",
        "meta_epoch": "2025-12-14T18:29:14.927424",
        "meta_mean_motion": 14.44077936,
        "meta_eccentricity": 0.00412229,
        "meta_inclination": 74.0322,
        "meta_ra_of_asc_node": 353.8649,
        "meta_arg_of_pericenter": 49.0705,
        "meta_mean_anomaly": 128.2868,
        "meta_ephemeris_type": 0,
        "meta_classification_type": "U",
        "meta_norad_cat_id": 33848,
        "meta_element_set_no": 999,
        "meta_rev_at_epoch": 87860,
        "meta_bstar": 0.0009674691,
        "meta_mean_motion_dot": 3.321e-05,
        "meta_mean_motion_ddot": 0,
        "tle_line1": "1 33848U 93036CR  25348.77031166  .00003321  00000+0  96747-3 0  9994",
        "tle_line2": "2 33848  74.0322 353.8649 0041222  49.0705 128.2868 14.44077936878609"
      },
      "geometry": {
        "type": "Point",
        "coordinates": [
          -42.221748620839854,
          -63.33266453588309
        ]
      }
    },
    {
      "type": "Feature",
      "properties": {
        "norad_id": 33892,
        "name": "COSMOS 2251 DEB",
        "group": "cosmos-2251-debris",
        "lat": 10.15290073203695,
        "lon": 100.0333686103685,
        "alt_km": 851.3967249868501,
        "timestamp": "2025-12-15T11:38:37.544949+00:00",
        "meta_object_name": "COSMOS 2251 DEB",
        "meta_object_id": "1993-036CV",
        "meta_epoch": "2025-12-14T17:44:29.142816",
        "meta_mean_motion": 14.23347595,
        "meta_eccentricity": 0.01127281,
        "meta_inclination": 73.8029,
        "meta_ra_of_asc_node": 98.41,
        "meta_arg_of_pericenter": 129.2593,
        "meta_mean_anomaly": 21.8856,
        "meta_ephemeris_type": 0,
        "meta_classification_type": "U",
        "meta_norad_cat_id": 33892,
        "meta_element_set_no": 999,
        "meta_rev_at_epoch": 86983,
        "meta_bstar": 0.0008767231,
        "meta_mean_motion_dot": 2.097e-05,
        "meta_mean_motion_ddot": 0,
        "tle_line1": "1 33892U 93036CV  25348.73922619  .00002097  00000+0  87672-3 0  9997",
        "tle_line2": "2 33892  73.8029  98.4100 0112728 129.2593  21.8856 14.23347595869837"
      },
      "geometry": {
        "type": "Point",
        "coordinates": [
          100.0333686103685,
          10.15290073203695
        ]
      }
    },
    {
      "type": "Feature",
      "properties": {
        "norad_id": 33894,
        "name": "COSMOS 2251 DEB",
        "group": "cosmos-2251-debris",
        "lat": 1.8513690865494825,
        "lon": -14.628222312233513,
        "alt_km": 1219.038986473889,
        "timestamp": "2025-12-15T11:38:37.544958+00:00",
        "meta_object_name": "COSMOS 2251 DEB",
        "meta_object_id": "1993-036CX",
        "meta_epoch": "2025-12-14T10:11:44.126592",
        "meta_mean_motion": 13.21310634,
        "meta_eccentricity": 0.05794798,
        "meta_inclination": 73.7675,
        "meta_ra_of_asc_node": 346.472,
        "meta_arg_of_pericenter": 265.6641,
        "meta_mean_anomaly": 87.8063,
        "meta_ephemeris_type": 0,
        "meta_classification_type": "U",
        "meta_norad_cat_id": 33894,
        "meta_element_set_no": 999,
        "meta_rev_at_epoch": 80730,
        "meta_bstar": 0.0016105928,
        "meta_mean_motion_dot": 1.581e-05,
        "meta_mean_motion_ddot": 0,
        "tle_line1": "1 33894U 93036CX  25348.42481628  .00001581  00000+0  16106-2 0  9995",
        "tle_line2": "2 33894  73.7675 346.4720 0579479 265.6641  87.8063 13.21310634807305"
      },
      "geometry": {
        "type": "Point",
        "coordinates": [
          -14.628222312233513,
          1.8513690865494825
        ]
      }
    },
    {
      "type": "Feature",
      "properties": {
        "norad_id": 33896,
        "name": "COSMOS 2251 DEB",
        "group": "cosmos-2251-debris",
        "lat": 37.89263136560932,
        "lon": 164.80515236257975,
        "alt_km": 797.5181581881634,
        "timestamp": "2025-12-15T11:38:37.544968+00:00",
        "meta_object_name": "COSMOS 2251 DEB",
        "meta_object_id": "1993-036CZ",
        "meta_epoch": "2025-12-14T22:30:41.306976",
        "meta_mean_motion": 14.19044373,
        "meta_eccentricity": 0.01265595,
        "meta_inclination": 73.7659,
        "meta_ra_of_asc_node": 152.6921,
        "meta_arg_of_pericenter": 328.0506,
        "meta_mean_anomaly": 156.2086,
        "meta_ephemeris_type": 0,
        "meta_classification_type": "U",
        "meta_norad_cat_id": 33896,
        "meta_element_set_no": 999,
        "meta_rev_at_epoch": 86771,
        "meta_bstar": 0.00064552496,
        "meta_mean_motion_dot": 1.433e-05,
        "meta_mean_motion_ddot": 0,
        "tle_line1": "1 33896U 93036CZ  25348.93797809  .00001433  00000+0  64552-3 0  9999",
        "tle_line2": "2 33896  73.7659 152.6921 0126559 328.0506 156.2086 14.19044373867719"
      },
      "geometry": {
        "type": "Point",
        "coordinates": [
          164.80515236257975,
          37.89263136560932
        ]
      }
    },
    {
      "type": "Feature",
      "properties": {
        "norad_id": 33899,
        "name": "COSMOS 2251 DEB",
        "group": "cosmos-2251-debris",
        "lat": 61.39845639524383,
        "lon": -131.14378626769934,
        "alt_km": 647.6785853899682,
        "timestamp": "2025-12-15T11:38:37.544978+00:00",
        "meta_object_name": "COSMOS 2251 DEB",
        "meta_object_id": "1993-036DC",
        "meta_epoch": "2025-12-14T17:37:37.992864",
        "meta_mean_motion": 14.61213382,
        "meta_eccentricity": 0.00566065,
        "meta_inclination": 74.0539,
        "meta_ra_of_asc_node": 81.9155,
        "meta_arg_of_pericenter": 144.0656,
        "meta_mean_anomaly": 342.9717,
        "meta_ephemeris_type": 0,
        "meta_classification_type": "U",
        "meta_norad_cat_id": 33899,
        "meta_element_set_no": 999,
        "meta_rev_at_epoch": 88868,
        "meta_bstar": 0.00080861587,
        "meta_mean_motion_dot": 4.048e-05,
        "meta_mean_motion_ddot": 0,
        "tle_line1": "1 33899U 93036DC  25348.73446751  .00004048  00000+0  80862-3 0  9994",
        "tle_line2": "2 33899  74.0539  81.9155 0056606 144.0656 342.9717 14.61213382888682"
      },
      "geometry": {
        "type": "Point",
        "coordinates": [
          -131.14378626769934,
          61.39845639524383
        ]
      }
    },
    {
      "type": "Feature",
      "properties": {
        "norad_id": 33900,
        "name": "COSMOS 2251 DEB",
        "group": "cosmos-2251-debris",
        "lat": 55.14054356878748,
        "lon": 150.34016389569936,
        "alt_km": 662.7960997490818,
        "timestamp": "2025-12-15T11:38:37.544988+00:00",
        "meta_object_name": "COSMOS 2251 DEB",
        "meta_object_id": "1993-036DD",
        "meta_epoch": "2025-12-14T10:56:20.961024",
        "meta_mean_motion": 14.58355241,
        "meta_eccentricity": 0.00467432,
        "meta_inclination": 74.0194,
        "meta_ra_of_asc_node": 356.5936,
        "meta_arg_of_pericenter": 148.241,
        "meta_mean_anomaly": 331.3165,
        "meta_ephemeris_type": 0,
        "meta_classification_type": "U",
        "meta_norad_cat_id": 33900,
        "meta_element_set_no": 999,
        "meta_rev_at_epoch": 89061,
        "meta_bstar": 0.0004644706,
        "meta_mean_motion_dot": 2.153e-05,
        "meta_mean_motion_ddot": 0,
        "tle_line1": "1 33900U 93036DD  25348.45579816  .00002153  00000+0  46447-3 0  9991",
        "tle_line2": "2 33900  74.0194 356.5936 0046743 148.2410 331.3165 14.58355241890617"
      },
      "geometry": {
        "type": "Point",
        "coordinates": [
          150.34016389569936,
          55.14054356878748
        ]
      }
    }
  ]
}